[{"OBJECT_NAME":"ARCSTONE","OBJECT_ID":"2025-135N","EPOCH":"2026-03-09T21:21:29.017152","MEAN_MOTION":15.28638458,"ECCENTRICITY":0.00041199,"INCLINATION":97.4495,"RA_OF_ASC_NODE":185.9194,"ARG_OF_PERICENTER":166.7863,"MEAN_ANOMALY":193.3485,"EPHEMERIS_TYPE":0,"CLASSIFICATION_TYPE":"U","NORAD_CAT_ID":64540,"ELEMENT_SET_NO":999,"REV_AT_EPOCH":3984,"BSTAR":0.00094899777,"MEAN_MOTION_DOT":0.00026427,"MEAN_MOTION_DDOT":0},{"OBJECT_NAME":"STARLINK-35475","OBJECT_ID":"2025-223M","EPOCH":"2026-03-08T22:17:55.987008","MEAN_MOTION":15.302029,"ECCENTRICITY":0.0001193,"INCLINATION":53.1572,"RA_OF_ASC_NODE":297.3932,"ARG_OF_PERICENTER":75.081,"MEAN_ANOMALY":285.0323,"EPHEMERIS_TYPE":0,"CLASSIFICATION_TYPE":"U","NORAD_CAT_ID":65865,"ELEMENT_SET_NO":999,"REV_AT_EPOCH":2409,"BSTAR":0.00050900752,"MEAN_MOTION_DOT":0.00014747,"MEAN_MOTION_DDOT":0}]
